ATLAS CENTAUR R/B       
1 06155U 72065B   26037.27414771  .00001874  00000+0  25897-3 0  9991
2 06155  35.0009 129.8446 0033096 105.9504 254.4847 14.77594325836610
SL-8 R/B                
1 08459U 75112B   26037.54899486  .00000261  00000+0  94589-4 0  9990
2 08459  74.0593  76.2013 0015523 180.1307 179.9846 14.38188176627399
SL-3 R/B                
1 10114U 77057B   26037.56651118  .00015897  00000+0  34327-3 0  9995
2 10114  97.5733 208.1483 0008146  41.9941 318.1930 15.44588009663527
SEASAT 1                
1 10967U 78064A   26037.64503623  .00000457  00000+0  16608-3 0  9994
2 10967 108.0164  60.3480 0001519 292.0930  68.0054 14.46134736502028
SL-14 R/B               
1 11267U 79011B   26037.19130018  .00000887  00000+0  85105-4 0  9991
2 11267  82.5258 126.4569 0016607 157.9505 202.2433 14.91868832524089
SL-8 R/B                
1 11574U 79089B   26037.60294112  .00000410  00000+0  13193-3 0  9998
2 11574  74.0697 148.5859 0016468 325.2368  34.7711 14.42330905431627
SL-14 R/B               
1 11672U 80005B   26037.25075185  .00000991  00000+0  97919-4 0  9998
2 11672  82.5174 337.0487 0014117 268.6559  91.3043 14.90887742471803
SL-8 R/B                
1 12139U 81003B   26037.19970743  .00024228  00000+0  64280-3 0  9996
2 12139  82.9395 319.1150 0263737 288.6689  68.6078 15.09823601309922
SL-3 R/B                
1 12465U 81046B   26037.43266862  .00015440  00000+0  36930-3 0  9999
2 12465  81.2346 327.2438 0020597 124.4221 235.8972 15.41115767433613
SL-3 R/B                
1 12904U 81103B   26037.65884942  .00007301  00000+0  32735-3 0  9996
2 12904  81.1561 249.8300 0013846  33.4991 326.7113 15.21000280968518
SL-3 R/B                
1 13068U 82013B   26037.61452062  .00005918  00000+0  25902-3 0  9999
2 13068  81.1741 197.1776 0021797 285.3393  74.5430 15.21668537399625
SL-3 R/B                
1 13154U 82039B   26037.64438215  .00003169  00000+0  19209-3 0  9999
2 13154  81.1615 251.7452 0030077  66.0224 294.4146 15.09909127376954
