CCSDS_OMM_VERS = 2.0
CREATION_DATE  = 
ORIGINATOR     = 

OBJECT_NAME    = ATLAS CENTAUR R/B
OBJECT_ID      = 1972-065B
CENTER_NAME    = EARTH
REF_FRAME      = TEME
TIME_SYSTEM    = UTC
MEAN_ELEMENT_THEORY = SGP/SGP4

EPOCH          = 2026-02-06T06:34:46.362144
MEAN_MOTION    = 14.77594325
ECCENTRICITY   = .0033096
INCLINATION    = 35.0009
RA_OF_ASC_NODE = 129.8446
ARG_OF_PERICENTER = 105.9504
MEAN_ANOMALY   = 254.4847

EPHEMERIS_TYPE = 0
CLASSIFICATION_TYPE = U
NORAD_CAT_ID   = 6155
ELEMENT_SET_NO = 999
REV_AT_EPOCH   = 83661
BSTAR          = .25897E-3
MEAN_MOTION_DOT = .1874E-4
MEAN_MOTION_DDOT = 0

CCSDS_OMM_VERS = 2.0
CREATION_DATE  = 
ORIGINATOR     = 

OBJECT_NAME    = SL-8 R/B
OBJECT_ID      = 1975-112B
CENTER_NAME    = EARTH
REF_FRAME      = TEME
TIME_SYSTEM    = UTC
MEAN_ELEMENT_THEORY = SGP/SGP4

EPOCH          = 2026-02-06T13:10:33.155904
MEAN_MOTION    = 14.38188176
ECCENTRICITY   = .0015523
INCLINATION    = 74.0593
RA_OF_ASC_NODE = 76.2013
ARG_OF_PERICENTER = 180.1307
MEAN_ANOMALY   = 179.9846

EPHEMERIS_TYPE = 0
CLASSIFICATION_TYPE = U
NORAD_CAT_ID   = 8459
ELEMENT_SET_NO = 999
REV_AT_EPOCH   = 62739
BSTAR          = .94589232E-4
MEAN_MOTION_DOT = .261E-5
MEAN_MOTION_DDOT = 0

CCSDS_OMM_VERS = 2.0
CREATION_DATE  = 
ORIGINATOR     = 

OBJECT_NAME    = SL-3 R/B
OBJECT_ID      = 1977-057B
CENTER_NAME    = EARTH
REF_FRAME      = TEME
TIME_SYSTEM    = UTC
MEAN_ELEMENT_THEORY = SGP/SGP4

EPOCH          = 2026-02-06T13:35:46.565952
MEAN_MOTION    = 15.44588009
ECCENTRICITY   = .00081467
INCLINATION    = 97.5733
RA_OF_ASC_NODE = 208.1483
ARG_OF_PERICENTER = 41.9941
MEAN_ANOMALY   = 318.1930

EPHEMERIS_TYPE = 0
CLASSIFICATION_TYPE = U
NORAD_CAT_ID   = 10114
ELEMENT_SET_NO = 999
REV_AT_EPOCH   = 66352
BSTAR          = .34326656E-3
MEAN_MOTION_DOT = .15897E-3
MEAN_MOTION_DDOT = 0

CCSDS_OMM_VERS = 2.0
CREATION_DATE  = 
ORIGINATOR     = 

OBJECT_NAME    = SEASAT 1
OBJECT_ID      = 1978-064A
CENTER_NAME    = EARTH
REF_FRAME      = TEME
TIME_SYSTEM    = UTC
MEAN_ELEMENT_THEORY = SGP/SGP4

EPOCH          = 2026-02-06T15:28:51.130272
MEAN_MOTION    = 14.46134736
ECCENTRICITY   = .00015195
INCLINATION    = 108.0164
RA_OF_ASC_NODE = 60.3480
ARG_OF_PERICENTER = 292.0930
MEAN_ANOMALY   = 68.0054

EPHEMERIS_TYPE = 0
CLASSIFICATION_TYPE = U
NORAD_CAT_ID   = 10967
ELEMENT_SET_NO = 999
REV_AT_EPOCH   = 50202
BSTAR          = .16607976E-3
MEAN_MOTION_DOT = .457E-5
MEAN_MOTION_DDOT = 0

CCSDS_OMM_VERS = 2.0
CREATION_DATE  = 
ORIGINATOR     = 

OBJECT_NAME    = SL-14 R/B
OBJECT_ID      = 1979-011B
CENTER_NAME    = EARTH
REF_FRAME      = TEME
TIME_SYSTEM    = UTC
MEAN_ELEMENT_THEORY = SGP/SGP4

EPOCH          = 2026-02-06T04:35:28.335552
MEAN_MOTION    = 14.91868832
ECCENTRICITY   = .00166078
INCLINATION    = 82.5258
RA_OF_ASC_NODE = 126.4569
ARG_OF_PERICENTER = 157.9505
MEAN_ANOMALY   = 202.2433

EPHEMERIS_TYPE = 0
CLASSIFICATION_TYPE = U
NORAD_CAT_ID   = 11267
ELEMENT_SET_NO = 999
REV_AT_EPOCH   = 52408
BSTAR          = .85105344E-4
MEAN_MOTION_DOT = .887E-5
MEAN_MOTION_DDOT = 0

CCSDS_OMM_VERS = 2.0
CREATION_DATE  = 
ORIGINATOR     = 

OBJECT_NAME    = SL-8 R/B
OBJECT_ID      = 1979-089B
CENTER_NAME    = EARTH
REF_FRAME      = TEME
TIME_SYSTEM    = UTC
MEAN_ELEMENT_THEORY = SGP/SGP4

EPOCH          = 2026-02-06T14:28:14.112768
MEAN_MOTION    = 14.42330905
ECCENTRICITY   = .00164685
INCLINATION    = 74.0697
RA_OF_ASC_NODE = 148.5859
ARG_OF_PERICENTER = 325.2368
MEAN_ANOMALY   = 34.7711

EPHEMERIS_TYPE = 0
CLASSIFICATION_TYPE = U
NORAD_CAT_ID   = 11574
ELEMENT_SET_NO = 999
REV_AT_EPOCH   = 43162
BSTAR          = .13192674E-3
MEAN_MOTION_DOT = .41E-5
MEAN_MOTION_DDOT = 0

CCSDS_OMM_VERS = 2.0
CREATION_DATE  = 
ORIGINATOR     = 

OBJECT_NAME    = SL-14 R/B
OBJECT_ID      = 1980-005B
CENTER_NAME    = EARTH
REF_FRAME      = TEME
TIME_SYSTEM    = UTC
MEAN_ELEMENT_THEORY = SGP/SGP4

EPOCH          = 2026-02-06T06:01:04.959840
MEAN_MOTION    = 14.90887742
ECCENTRICITY   = .0014117
INCLINATION    = 82.5174
RA_OF_ASC_NODE = 337.0487
ARG_OF_PERICENTER = 268.6559
MEAN_ANOMALY   = 91.3043

EPHEMERIS_TYPE = 0
CLASSIFICATION_TYPE = U
NORAD_CAT_ID   = 11672
ELEMENT_SET_NO = 999
REV_AT_EPOCH   = 47180
BSTAR          = .97919E-4
MEAN_MOTION_DOT = .991E-5
MEAN_MOTION_DDOT = 0

CCSDS_OMM_VERS = 2.0
CREATION_DATE  = 
ORIGINATOR     = 

OBJECT_NAME    = SL-8 R/B
OBJECT_ID      = 1981-003B
CENTER_NAME    = EARTH
REF_FRAME      = TEME
TIME_SYSTEM    = UTC
MEAN_ELEMENT_THEORY = SGP/SGP4

EPOCH          = 2026-02-06T04:47:34.721952
MEAN_MOTION    = 15.09823601
ECCENTRICITY   = .0263737
INCLINATION    = 82.9395
RA_OF_ASC_NODE = 319.1150
ARG_OF_PERICENTER = 288.6689
MEAN_ANOMALY   = 68.6078

EPHEMERIS_TYPE = 0
CLASSIFICATION_TYPE = U
NORAD_CAT_ID   = 12139
ELEMENT_SET_NO = 999
REV_AT_EPOCH   = 30992
BSTAR          = .6428E-3
MEAN_MOTION_DOT = .24228E-3
MEAN_MOTION_DDOT = 0

CCSDS_OMM_VERS = 2.0
CREATION_DATE  = 
ORIGINATOR     = 

OBJECT_NAME    = SL-3 R/B
OBJECT_ID      = 1981-046B
CENTER_NAME    = EARTH
REF_FRAME      = TEME
TIME_SYSTEM    = UTC
MEAN_ELEMENT_THEORY = SGP/SGP4

EPOCH          = 2026-02-06T10:23:02.568768
MEAN_MOTION    = 15.41115767
ECCENTRICITY   = .00205973
INCLINATION    = 81.2346
RA_OF_ASC_NODE = 327.2438
ARG_OF_PERICENTER = 124.4221
MEAN_ANOMALY   = 235.8972

EPHEMERIS_TYPE = 0
CLASSIFICATION_TYPE = U
NORAD_CAT_ID   = 12465
ELEMENT_SET_NO = 999
REV_AT_EPOCH   = 43361
BSTAR          = .3693004E-3
MEAN_MOTION_DOT = .1544E-3
MEAN_MOTION_DDOT = 0

CCSDS_OMM_VERS = 2.0
CREATION_DATE  = 
ORIGINATOR     = 

OBJECT_NAME    = SL-3 R/B
OBJECT_ID      = 1981-103B
CENTER_NAME    = EARTH
REF_FRAME      = TEME
TIME_SYSTEM    = UTC
MEAN_ELEMENT_THEORY = SGP/SGP4

EPOCH          = 2026-02-06T15:48:44.589888
MEAN_MOTION    = 15.21000280
ECCENTRICITY   = .00138468
INCLINATION    = 81.1561
RA_OF_ASC_NODE = 249.8300
ARG_OF_PERICENTER = 33.4991
MEAN_ANOMALY   = 326.7113

EPHEMERIS_TYPE = 0
CLASSIFICATION_TYPE = U
NORAD_CAT_ID   = 12904
ELEMENT_SET_NO = 999
REV_AT_EPOCH   = 96851
BSTAR          = .32735343E-3
MEAN_MOTION_DOT = .7301E-4
MEAN_MOTION_DDOT = 0

CCSDS_OMM_VERS = 2.0
CREATION_DATE  = 
ORIGINATOR     = 

OBJECT_NAME    = SL-3 R/B
OBJECT_ID      = 1982-013B
CENTER_NAME    = EARTH
REF_FRAME      = TEME
TIME_SYSTEM    = UTC
MEAN_ELEMENT_THEORY = SGP/SGP4

EPOCH          = 2026-02-06T14:44:54.581568
MEAN_MOTION    = 15.21668537
ECCENTRICITY   = .00217973
INCLINATION    = 81.1741
RA_OF_ASC_NODE = 197.1776
ARG_OF_PERICENTER = 285.3393
MEAN_ANOMALY   = 74.5430

EPHEMERIS_TYPE = 0
CLASSIFICATION_TYPE = U
NORAD_CAT_ID   = 13068
ELEMENT_SET_NO = 999
REV_AT_EPOCH   = 39962
BSTAR          = .25901682E-3
MEAN_MOTION_DOT = .5918E-4
MEAN_MOTION_DDOT = 0

CCSDS_OMM_VERS = 2.0
CREATION_DATE  = 
ORIGINATOR     = 

OBJECT_NAME    = SL-3 R/B
OBJECT_ID      = 1982-039B
CENTER_NAME    = EARTH
REF_FRAME      = TEME
TIME_SYSTEM    = UTC
MEAN_ELEMENT_THEORY = SGP/SGP4

EPOCH          = 2026-02-06T15:27:54.617760
MEAN_MOTION    = 15.09909127
ECCENTRICITY   = .00300777
INCLINATION    = 81.1615
RA_OF_ASC_NODE = 251.7452
ARG_OF_PERICENTER = 66.0224
MEAN_ANOMALY   = 294.4146

EPHEMERIS_TYPE = 0
CLASSIFICATION_TYPE = U
NORAD_CAT_ID   = 13154
ELEMENT_SET_NO = 999
REV_AT_EPOCH   = 37695
BSTAR          = .19209388E-3
MEAN_MOTION_DOT = .3169E-4
MEAN_MOTION_DDOT = 0

